STARLINK-1570           
1 46059U 20055AJ  26068.51642000  .00003570  00000+0  13254-3 0  9998
2 46059  53.1603 114.7149 0001540 115.7829 244.3331 15.30212858309001
TRANSPORTER-12 OBJECT AZ
1 62656U 25009AZ  26068.71026235  .00016057  00000+0  54903-3 0  9991
2 62656  97.3981 151.9913 0000987  45.3581 314.7740 15.30349724 63792
